OBJECT_NAME,OBJECT_ID,EPOCH,MEAN_MOTION,ECCENTRICITY,INCLINATION,RA_OF_ASC_NODE,ARG_OF_PERICENTER,MEAN_ANOMALY,EPHEMERIS_TYPE,CLASSIFICATION_TYPE,NORAD_CAT_ID,ELEMENT_SET_NO,REV_AT_EPOCH,BSTAR,MEAN_MOTION_DOT,MEAN_MOTION_DDOT
ONEWEB-0087,2020-020AD,2026-07-18T23:59:26.900160,13.11418448,.00015927,87.8902,14.7129,97.2912,262.8397,0,U,45451,999,30675,.63802831E-3,.239E-5,0
ONEWEB-0082,2020-020AE,2026-07-18T23:54:33.705216,13.11419096,.00013522,87.8896,14.7273,92.8507,267.2776,0,U,45452,999,30684,.51737283E-4,.31E-6,0
ONEWEB-0050,2020-020AF,2026-07-19T02:25:33.312864,14.90478592,.00027731,88.9282,228.8753,164.3342,195.7973,0,U,45453,999,34513,.79976852E-4,.802E-5,0
ONEWEB-0034,2020-020AG,2026-07-19T04:28:26.452128,13.11414746,.0001804,87.8895,14.6986,89.0763,271.0572,0,U,45454,999,30678,.75229732E-4,.39E-6,0
ONEWEB-0060,2020-020AH,2026-07-18T23:43:46.475040,13.11418376,.00013803,87.8890,14.7338,125.0838,235.0420,0,U,45455,999,30671,-.77091399E-3,-.261E-5,0
ONEWEB-0086,2020-020AJ,2026-07-19T04:42:38.845152,13.11416586,.00019809,87.8894,14.6904,114.8355,245.2979,0,U,45456,999,30680,-.11929314E-2,-.41E-5,0
ONEWEB-0088,2020-020AK,2026-07-19T06:00:59.006880,13.11416064,.00016457,87.8902,14.6546,79.7617,280.3696,0,U,45457,999,30674,.13538676E-2,.493E-5,0
ONEWEB-0102,2020-100A,2026-07-18T22:11:48.560640,13.12443877,.00020723,87.8968,344.3637,103.1553,256.9807,0,U,47258,999,26889,.93414571E-3,.349E-5,0
ONEWEB-0109,2020-100B,2026-07-19T03:53:20.993856,13.12443108,.00020094,87.8976,344.3031,96.6499,263.4858,0,U,47259,999,26875,.10894091E-2,.405E-5,0
ONEWEB-0110,2020-100C,2026-07-19T02:42:36.056448,13.12443392,.00018562,87.8977,344.2967,106.0178,254.1155,0,U,47260,999,26891,-.63487043E-3,-.216E-5,0
ONEWEB-0111,2020-100D,2026-07-19T03:26:30.832224,13.12443994,.00017669,87.8975,344.3096,99.1124,261.0204,0,U,47261,999,26875,.15251027E-3,.68E-6,0
ONEWEB-0114,2020-100E,2026-07-18T22:41:04.828128,13.12441550,.00020809,87.8981,344.3467,97.2456,262.8909,0,U,47262,999,26868,.43629553E-3,.17E-5,0
ONEWEB-0117,2020-100F,2026-07-18T22:28:53.254272,13.12442017,.00018716,87.8974,344.3384,98.9158,261.2183,0,U,47263,999,26869,.10054811E-2,.374E-5,0
ONEWEB-0118,2020-100G,2026-07-18T21:27:53.421984,13.12442537,.00019309,87.8974,344.3496,86.8405,273.2944,0,U,47264,999,26888,-.10760663E-2,-.374E-5,0
ONEWEB-0119,2020-100H,2026-07-18T22:04:29.710848,13.12443322,.00018943,87.8964,344.3585,96.9622,263.1722,0,U,47265,999,26886,.84319719E-3,.316E-5,0
ONEWEB-0120,2020-100J,2026-07-19T02:18:24.462144,13.12441816,.00020264,87.8967,344.3249,95.1920,264.9439,0,U,47266,999,26891,.62336141E-3,.237E-5,0
ONEWEB-0121,2020-100K,2026-07-18T22:21:34.075296,13.12442278,.00016137,87.8976,344.3466,101.4867,258.6442,0,U,47267,999,26880,.11954163E-2,.443E-5,0
ONEWEB-0122,2020-100L,2026-07-18T22:13:01.990272,13.12442356,.0002059,87.8977,344.3528,99.2968,260.8393,0,U,47268,999,26871,.66598074E-3,.252E-5,0
ONEWEB-0123,2020-100M,2026-07-19T03:36:16.292448,13.12443714,.00018739,87.8964,344.3119,94.0433,266.0910,0,U,47269,999,26888,.807531E-3,.303E-5,0
ONEWEB-0124,2020-100N,2026-07-18T21:52:17.184000,13.12443798,.00017604,87.8965,344.3617,97.5969,262.5359,0,U,47270,999,26873,-.69104485E-4,-.12E-6,0
ONEWEB-0125,2020-100P,2026-07-18T21:20:33.639936,13.12442862,.00015933,87.8979,344.3531,91.5812,268.5499,0,U,47271,999,26879,-.11177609E-2,-.389E-5,0
ONEWEB-0126,2020-100Q,2026-07-18T21:50:03.715872,13.12443797,.00019729,87.8969,344.3627,95.3113,264.8241,0,U,47272,999,26886,-.10362303E-3,-.25E-6,0
ONEWEB-0127,2020-100R,2026-07-18T22:50:49.915968,13.12443075,.00019768,87.8961,344.3518,96.6398,263.4955,0,U,47273,999,26889,-.79915525E-4,-.16E-6,0
ONEWEB-0128,2020-100S,2026-07-19T03:02:06.425664,13.12443113,.00018651,87.8967,344.3305,107.2375,252.8958,0,U,47274,999,26893,-.12504329E-2,-.437E-5,0
ONEWEB-0129,2020-100T,2026-07-18T22:53:16.681920,13.12441384,.00029626,87.8979,344.3413,89.4548,270.6920,0,U,47275,999,26884,-.51256474E-3,-.172E-5,0
ONEWEB-0130,2020-100U,2026-07-18T21:42:31.684896,13.12444415,.0001952,87.8979,344.3476,98.9364,261.1985,0,U,47276,999,26880,-.33456463E-3,-.108E-5,0
ONEWEB-0131,2020-100V,2026-07-18T21:37:39.123264,13.12443623,.00018677,87.8963,344.3631,102.6324,257.5013,0,U,47277,999,26884,-.73870466E-3,-.253E-5,0
ONEWEB-0132,2020-100W,2026-07-19T03:48:28.332000,13.12442692,.0001905,87.8967,344.3146,99.3252,260.8092,0,U,47278,999,26877,.11505501E-2,.427E-5,0
ONEWEB-0133,2020-100X,2026-07-19T02:22:52.084416,13.12442816,.00018371,87.8980,344.3059,101.8839,258.2496,0,U,47279,999,26892,.32855016E-3,.131E-5,0
ONEWEB-0134,2020-100Y,2026-07-18T21:59:36.581568,13.12443485,.00020858,87.8979,344.3394,101.6739,258.4623,0,U,47280,999,26887,.50195225E-3,.193E-5,0
ONEWEB-0135,2020-100Z,2026-07-19T02:47:27.801600,13.12442966,.00020227,87.8966,344.3183,104.8503,255.2850,0,U,47281,999,26892,-.10344204E-2,-.359E-5,0
ONEWEB-0136,2020-100AA,2026-07-18T21:44:57.764832,13.12444030,.00021216,87.8970,344.3441,102.5068,257.6298,0,U,47282,999,26882,-.33974002E-3,-.11E-5,0
ONEWEB-0137,2020-100AB,2026-07-18T22:33:45.293184,13.12442563,.00018115,87.8982,344.3485,96.4700,263.6634,0,U,47283,999,26873,.80221212E-3,.301E-5,0
ONEWEB-0138,2020-100AC,2026-07-19T03:31:23.760192,13.12443547,.00020884,87.8975,344.3123,99.3509,260.7856,0,U,47284,999,26884,.54765485E-3,.21E-5,0
ONEWEB-0139,2020-100AD,2026-07-18T23:00:48.042432,13.12441499,.00019289,87.8977,344.3353,97.3792,262.7556,0,U,47285,999,26889,-.96127002E-3,-.333E-5,0
ONEWEB-0140,2020-100AE,2026-07-18T21:54:43.684704,13.12443941,.00018004,87.8977,344.3361,102.2240,257.9090,0,U,47286,999,26885,.1088095E-3,.52E-6,0
ONEWEB-0141,2020-100AF,2026-07-19T02:39:56.689920,13.12442448,.00018111,87.8974,344.3015,87.5394,272.5942,0,U,47287,999,26886,-.94961222E-3,-.329E-5,0
ONEWEB-0142,2020-100AG,2026-07-19T02:23:16.442304,13.12443134,.00021523,87.8970,344.3235,88.0116,272.1259,0,U,47288,999,26885,.21785274E-3,.91E-6,0
ONEWEB-0143,2020-100AH,2026-07-19T02:37:42.596256,13.12442098,.00018393,87.8969,344.3212,95.6811,264.4527,0,U,47289,999,26883,-.63841354E-3,-.217E-5,0
ONEWEB-0144,2020-100AJ,2026-07-18T22:16:41.600928,13.12442642,.00022538,87.8980,344.3333,96.7969,263.3416,0,U,47290,999,26873,.11235721E-2,.417E-5,0
ONEWEB-0145,2020-100AK,2026-07-18T21:35:12.126624,13.12443763,.00019441,87.8966,344.3634,96.4480,263.6870,0,U,47291,999,26892,-.8872346E-3,-.306E-5,0
ONEWEB-0146,2020-100AL,2026-07-19T02:59:40.059744,13.12443334,.00015684,87.8979,344.3122,103.7213,256.4090,0,U,47292,999,26886,-.11222325E-2,-.391E-5,0
ONEWEB-0147,2020-100AM,2026-07-19T02:10:53.086080,13.12443105,.00019367,87.8976,344.3015,101.2621,258.8725,0,U,47293,999,26875,.95357047E-3,.356E-5,0
ONEWEB-0115,2021-025A,2026-07-19T05:54:58.488192,13.13461297,.00018594,87.8983,313.8448,102.9227,257.2110,0,U,48042,999,25780,.28628966E-3,.117E-5,0
ONEWEB-0152,2021-025B,2026-07-18T21:05:56.288544,13.13473171,.00018733,87.8992,313.9163,102.7920,257.3419,0,U,48043,999,25771,-.96262553E-3,-.339E-5,0
ONEWEB-0153,2021-025C,2026-07-19T05:42:44.830368,13.13469308,.00020025,87.8980,313.8453,98.4042,261.7315,0,U,48044,999,25775,.68532258E-3,.263E-5,0
ONEWEB-0154,2021-025D,2026-07-19T05:37:52.368096,13.13469870,.00020049,87.8988,313.8455,105.7762,254.3589,0,U,48045,999,25771,.92575276E-3,.351E-5,0
ONEWEB-0116,2021-025E,2026-07-19T06:33:55.836288,13.13470577,.00018538,87.8986,313.8350,102.8356,257.2980,0,U,48046,999,25786,-.75679098E-3,-.264E-5,0
ONEWEB-0150,2021-025F,2026-07-19T00:30:43.604928,13.13469153,.0001837,87.8992,313.8824,94.5159,265.6180,0,U,48047,999,25772,-.19934287E-3,-.6E-6,0
ONEWEB-0107,2021-025G,2026-07-18T19:04:03.991296,13.13471909,.00021101,87.8994,313.9231,99.2052,260.9316,0,U,48048,999,25767,-.53204415E-3,-.182E-5,0
ONEWEB-0101,2021-025H,2026-07-19T06:58:18.628032,13.13471699,.00021013,87.8976,313.8373,101.4827,258.6539,0,U,48049,999,25771,.38028263E-3,.152E-5,0
ONEWEB-0113,2021-025J,2026-07-19T07:18:32.530752,13.13891086,.00018661,87.8983,313.7418,96.1048,264.0294,0,U,48050,999,25782,.82044319E-3,.314E-5,0
ONEWEB-0112,2021-025K,2026-07-18T21:01:04.901952,13.13469681,.0002175,87.8988,313.9059,100.9713,259.1661,0,U,48051,999,25775,-.4685749E-3,-.158E-5,0
ONEWEB-0156,2021-025L,2026-07-18T19:23:33.089568,13.13471995,.00020075,87.8988,313.9289,96.6487,263.4871,0,U,48052,999,25772,-.94413059E-3,-.332E-5,0
ONEWEB-0161,2021-025M,2026-07-19T07:34:52.414752,13.13473515,.00020709,87.8990,313.8286,94.0699,266.0667,0,U,48053,999,25772,.84190701E-3,.32E-5,0
ONEWEB-0158,2021-025N,2026-07-19T06:36:22.770720,13.13472131,.00018762,87.8984,313.8350,109.5395,250.5937,0,U,48054,999,25784,-.51563387E-3,-.176E-5,0
ONEWEB-0157,2021-025P,2026-07-19T01:43:50.772288,13.13471399,.00023044,87.8985,313.8797,95.2900,264.8492,0,U,48055,999,25775,.71667845E-3,.274E-5,0
ONEWEB-0162,2021-025Q,2026-07-19T06:38:37.448448,13.13470185,.00018627,87.8983,313.8390,95.5433,264.5908,0,U,48056,999,25775,-.49805881E-3,-.169E-5,0
ONEWEB-0155,2021-025R,2026-07-19T06:48:32.762592,13.13476497,.0002073,87.8987,313.8343,96.4784,263.6581,0,U,48057,999,25789,-.27341297E-3,-.87E-6,0
ONEWEB-0149,2021-025S,2026-07-19T07:20:15.799488,13.13470354,.00018665,87.8986,313.8344,95.7356,264.3986,0,U,48058,999,25770,.10759539E-2,.406E-5,0
ONEWEB-0148,2021-025T,2026-07-19T06:26:37.415904,13.13469701,.00018511,87.8981,313.8463,82.6587,277.4752,0,U,48059,999,25782,-.75104176E-3,-.262E-5,0
ONEWEB-0160,2021-025U,2026-07-18T19:52:49.377792,13.13470384,.0001521,87.8979,313.9301,120.3593,239.7687,0,U,48060,999,25771,.70283462E-4,.38E-6,0
ONEWEB-0163,2021-025V,2026-07-19T06:29:03.692832,13.13470031,.00022409,87.8990,313.8389,96.1040,264.0345,0,U,48061,999,25789,-.70343672E-3,-.244E-5,0
ONEWEB-0159,2021-025W,2026-07-19T06:16:52.214880,13.13469890,.0002185,87.8990,313.8345,97.5108,262.6269,0,U,48062,999,25781,-.66276789E-3,-.229E-5,0
ONEWEB-0164,2021-025X,2026-07-19T00:20:58.317504,13.13469592,.00019265,87.8990,313.8901,102.3089,257.8256,0,U,48063,999,25776,.42136621E-3,.167E-5,0
